NORAD_CAT_ID,OBJECT_NAME,OBJECT_TYPE,EPOCH,MEAN_MOTION,ECCENTRICITY,INCLINATION,RA_OF_ASC_NODE,ARG_OF_PERICENTER,MEAN_ANOMALY,BSTAR,MEAN_MOTION_DOT,MEAN_MOTION_DDOT,TLE_LINE0,TLE_LINE1,TLE_LINE2,SEMIMAJOR_AXIS,PERIOD,APOGEE,PERIGEE,DECAYED
49749,STARLINK-3250,PAYLOAD,2023-06-15 12:52:43,15.08832875,8.98e-05,53.2166,310.0074,79.1545,280.9548,0.00019371,2.796e-05,0.0,0 STARLINK-3250,1 49749U 21115AB  23166.53661314  .00002796  00000-0  19371-3 0  9998,2 49749  53.2166 310.0074 0000898  79.1545 280.9548 15.08832875 84846,6917.902,95.438,540.388,539.146,0.0
49749,STARLINK-3250,PAYLOAD,2023-06-15 16:03:29,15.08841807,0.0001055,53.2166,309.4121,82.9313,277.1799,0.00012202,1.655e-05,0.0,0 STARLINK-3250,1 49749U 21115AB  23166.66908832  .00001655  00000-0  12202-3 0  9990,2 49749  53.2166 309.4121 0001055  82.9313 277.1799 15.08841807 85978,6917.875,95.437,540.47,539.01,0.0
49749,STARLINK-3250,PAYLOAD,2023-06-16 12:43:29,15.08853131,0.0001051,53.2162,305.5455,86.5275,273.5837,0.00026184,3.883e-05,0.0,0 STARLINK-3250,1 49749U 21115AB  23167.53020153  .00003883  00000-0  26184-3 0  9997,2 49749  53.2162 305.5455 0001051  86.5275 273.5837 15.08853131 84991,6917.84,95.437,540.432,538.978,0.0
49749,STARLINK-3250,PAYLOAD,2023-06-16 15:54:15,15.08859451,9.45e-05,53.2163,304.9502,87.8329,272.2771,0.000402,6.119e-05,0.0,0 STARLINK-3250,1 49749U 21115AB  23167.66267768  .00006119  00000-0  40200-3 0  9996,2 49749  53.2163 304.9502 0000945  87.8329 272.2771 15.08859451 86124,6917.821,95.436,540.34,539.032,0.0
49749,STARLINK-3250,PAYLOAD,2023-06-16 19:05:01,15.08864851,0.0001052,53.2162,304.3554,87.4344,272.6768,0.00050295,7.731e-05,0.0,0 STARLINK-3250,1 49749U 21115AB  23167.79515610  .00007731  00000-0  50295-3 0  9998,2 49749  53.2162 304.3554 0001052  87.4344 272.6768 15.08864851 85036,6917.804,95.436,540.397,538.942,0.0
49749,STARLINK-3250,PAYLOAD,2023-06-17 15:45:03,15.0883081,0.0001091,53.2164,300.4896,96.3218,263.7899,-9.3252e-05,-1.771e-05,0.0,0 STARLINK-3250,1 49749U 21115AB  23168.65629218 -.00001771  00000-0 -93252-4 0  9995,2 49749  53.2164 300.4896 0001091  96.3218 263.7899 15.08830810 86277,6917.908,95.438,540.528,539.019,0.0
49749,STARLINK-3250,PAYLOAD,2023-06-17 20:31:12,15.08836308,9.27e-05,53.2165,299.5973,96.274,263.8358,4.4996e-05,4.28e-06,0.0,0 STARLINK-3250,1 49749U 21115AB  23168.85501094  .00000428  00000-0  44996-4 0  9995,2 49749  53.2165 299.5973 0000927  96.2740 263.8358 15.08836308 85197,6917.892,95.438,540.398,539.115,0.0
49749,STARLINK-3250,PAYLOAD,2023-06-18 09:14:18,15.08838429,8.82e-05,53.2167,297.2189,100.9065,259.2026,0.00068178,0.00010579,0.0,0 STARLINK-3250,1 49749U 21115AB  23169.38493548  .00010579  00000-0  68178-3 0  9993,2 49749  53.2167 297.2189 0000882 100.9065 259.2026 15.08838429 85272,6917.885,95.438,540.36,539.14,0.0
49749,STARLINK-3250,PAYLOAD,2023-06-18 18:46:36,15.08854496,8.81e-05,53.2168,295.4355,102.9061,257.203,0.00089338,0.00013964,0.0,0 STARLINK-3250,1 49749U 21115AB  23169.78237213  .00013964  00000-0  89338-3 0  9994,2 49749  53.2168 295.4355 0000881 102.9061 257.2030 15.08854496 86440,6917.836,95.437,540.311,539.092,0.0
49749,STARLINK-3250,PAYLOAD,2023-06-19 01:08:09,15.08849979,8.88e-05,53.2169,294.2465,104.2891,255.82,0.00049749,7.641e-05,0.0,0 STARLINK-3250,1 49749U 21115AB  23170.04733193  .00007641  00000-0  49749-3 0  9990,2 49749  53.2169 294.2465 0000888 104.2891 255.8200 15.08849979 86480,6917.85,95.437,540.329,539.101,0.0
49749,STARLINK-3250,PAYLOAD,2023-06-19 07:29:42,15.08854261,0.0001419,53.2168,293.0569,101.158,258.9572,0.0005793,8.947e-05,0.0,0 STARLINK-3250,1 49749U 21115AB  23170.31229187  .00008947  00000-0  57930-3 0  9994,2 49749  53.2168 293.0569 0001419 101.1580 258.9572 15.08854261 85411,6917.837,95.437,540.683,538.72,0.0
49749,STARLINK-3250,PAYLOAD,2023-06-19 18:37:23,15.08850372,0.0001023,53.2169,290.9772,74.8647,285.2458,0.00037494,5.686e-05,0.0,0 STARLINK-3250,1 49749U 21115AB  23170.77597082  .00005686  00000-0  37494-3 0  9996,2 49749  53.2169 290.9772 0001023  74.8647 285.2458 15.08850372 85487,6917.849,95.437,540.421,539.006,0.0
49749,STARLINK-3250,PAYLOAD,2023-06-20 00:58:56,15.08841749,8.23e-05,53.2163,289.7866,104.1212,255.9871,4.809e-05,4.78e-06,0.0,0 STARLINK-3250,1 49749U 21115AB  23171.04093109  .00000478  00000-0  48090-4 0  9997,2 49749  53.2163 289.7866 0000823 104.1212 255.9871 15.08841749 86632,6917.875,95.437,540.309,539.171,0.0
49749,STARLINK-3250,PAYLOAD,2023-06-20 10:31:15,15.08841186,8.58e-05,53.2167,288.0036,111.3449,248.7635,0.00012047,1.63e-05,0.0,0 STARLINK-3250,1 49749U 21115AB  23171.43837178  .00001630  00000-0  12047-3 0  9995,2 49749  53.2167 288.0036 0000858 111.3449 248.7635 15.08841186 85583,6917.877,95.437,540.335,539.148,0.0
49749,STARLINK-3250,PAYLOAD,2023-06-20 20:03:33,15.08854031,8.46e-05,53.2159,286.2169,97.3827,262.7261,0.00039651,6.031e-05,0.0,0 STARLINK-3250,1 49749U 21115AB  23171.83580777  .00006031  00000-0  39651-3 0  9999,2 49749  53.2159 286.2169 0000846  97.3827 262.7261 15.08854031 85642,6917.838,95.437,540.288,539.117,0.0
49749,STARLINK-3250,PAYLOAD,2023-06-21 00:49:43,15.08832656,2.45e-05,53.2166,285.3275,215.5434,144.5542,-0.00017744,-3.11e-05,0.0,0 STARLINK-3250,1 49749U 21115AB  23172.03453020 -.00003110  00000-0 -17744-3 0  9998,2 49749  53.2166 285.3275 0000245 215.5434 144.5542 15.08832656 86783,6917.903,95.438,539.937,539.598,0.0
49749,STARLINK-3250,PAYLOAD,2023-06-21 13:32:48,15.088447,7.87e-05,53.2149,282.946,96.516,263.5922,0.00024466,3.609e-05,0.0,0 STARLINK-3250,1 49749U 21115AB  23172.56445243  .00003609  00000-0  24466-3 0  9994,2 49749  53.2149 282.9460 0000787  96.5160 263.5922 15.08844700 85750,6917.866,95.437,540.275,539.187,0.0
49749,STARLINK-3250,PAYLOAD,2023-06-21 15:08:11,15.08847558,8.32e-05,53.2151,282.6487,94.7612,265.3475,0.00046454,7.115e-05,0.0,0 STARLINK-3250,1 49749U 21115AB  23172.63069243  .00007115  00000-0  46454-3 0  9991,2 49749  53.2151 282.6487 0000832  94.7612 265.3475 15.08847558 86873,6917.857,95.437,540.298,539.147,0.0
49749,STARLINK-3250,PAYLOAD,2023-06-22 00:40:30,15.08845516,8.87e-05,53.2147,280.8657,89.2775,270.8319,0.00038257,5.807e-05,0.0,0 STARLINK-3250,1 49749U 21115AB  23173.02813381  .00005807  00000-0  38257-3 0  9993,2 49749  53.2147 280.8657 0000887  89.2775 270.8319 15.08845516 86933,6917.864,95.437,540.342,539.115,0.0
49749,STARLINK-3250,PAYLOAD,2023-06-23 00:31:18,15.0884117,9.27e-05,53.2158,276.4043,101.3867,258.7229,0.00032749,4.928e-05,0.0,0 STARLINK-3250,1 49749U 21115AB  23174.02173626  .00004928  00000-0  32749-3 0  9998,2 49749  53.2158 276.4043 0000927 101.3867 258.7229 15.08841170 87082,6917.877,95.437,540.383,539.101,0.0
49749,STARLINK-3250,PAYLOAD,2023-06-23 16:25:08,15.08857274,8.24e-05,53.2155,273.4319,85.3989,274.7098,0.00052965,8.156e-05,0.0,0 STARLINK-3250,1 49749U 21115AB  23174.68413088  .00008156  00000-0  52965-3 0  9998,2 49749  53.2155 273.4319 0000824  85.3989 274.7098 15.08857274 87189,6917.828,95.436,540.263,539.123,0.0
49749,STARLINK-3250,PAYLOAD,2023-06-24 06:43:37,15.08839159,0.0001057,53.2167,270.7555,76.5215,283.5895,8.5123e-05,1.067e-05,0.0,0 STARLINK-3250,1 49749U 21115AB  23175.28029728  .00001067  00000-0  85123-4 0  9996,2 49749  53.2167 270.7555 0001057  76.5215 283.5895 15.08839159 87272,6917.883,95.438,540.479,539.017,0.0
49749,STARLINK-3250,PAYLOAD,2023-06-24 17:51:19,15.08847951,0.0001014,53.2165,268.6734,82.1576,277.9531,0.00028891,4.314e-05,0.0,0 STARLINK-3250,1 49749U 21115AB  23175.74397504  .00004314  00000-0  28891-3 0  9993,2 49749  53.2165 268.6734 0001014  82.1576 277.9531 15.08847951 87342,6917.856,95.437,540.423,539.02,0.0
49749,STARLINK-3250,PAYLOAD,2023-06-25 09:45:10,15.08841961,0.0001046,53.2164,265.6996,78.9528,281.1581,0.00015397,2.164e-05,0.0,0 STARLINK-3250,1 49749U 21115AB  23176.40637630  .00002164  00000-0  15397-3 0  9992,2 49749  53.2164 265.6996 0001046  78.9528 281.1581 15.08841961 87441,6917.874,95.437,540.463,539.016,0.0
49749,STARLINK-3250,PAYLOAD,2023-06-25 16:06:42,15.08858419,0.0001057,53.2161,264.5107,80.0539,280.0572,0.0005531,8.53e-05,0.0,0 STARLINK-3250,1 49749U 21115AB  23176.67133042  .00008530  00000-0  55310-3 0  9991,2 49749  53.2161 264.5107 0001057  80.0539 280.0572 15.08858419 87486,6917.824,95.436,540.42,538.958,0.0
49749,STARLINK-3250,PAYLOAD,2023-06-25 22:28:15,15.08832748,6.03e-05,53.2159,263.3213,129.5866,230.5179,-0.00044227,-7.318e-05,0.0,0 STARLINK-3250,1 49749U 21115AB  23176.93629418 -.00007318  00000-0 -44227-3 0  9997,2 49749  53.2159 263.3213 0000603 129.5866 230.5179 15.08832748 87521,6917.903,95.438,540.185,539.35,0.0
49749,STARLINK-3250,PAYLOAD,2023-06-26 15:57:30,15.08839839,9.13e-05,53.2154,260.049,89.2053,270.9044,0.00030107,4.507e-05,0.0,0 STARLINK-3250,1 49749U 21115AB  23177.66493817  .00004507  00000-0  30107-3 0  9997,2 49749  53.2154 260.0490 0000913  89.2053 270.9044 15.08839839 87630,6917.881,95.438,540.377,539.114,0.0
49749,STARLINK-3250,PAYLOAD,2023-06-27 11:02:08,15.08840598,9.28e-05,53.215,256.481,93.4421,266.6678,0.00046617,7.139e-05,0.0,0 STARLINK-3250,1 49749U 21115AB  23178.45982258  .00007139  00000-0  46617-3 0  9994,2 49749  53.2150 256.4810 0000928  93.4421 266.6678 15.08840598 87755,6917.879,95.438,540.386,539.102,0.0
49749,STARLINK-3250,PAYLOAD,2023-06-28 10:52:55,15.08843,0.0001094,53.216,252.0201,94.4218,265.6899,0.00024596,3.629e-05,0.0,0 STARLINK-3250,1 49749U 21115AB  23179.45342278  .00003629  00000-0  24596-3 0  9999,2 49749  53.2160 252.0201 0001094  94.4218 265.6899 15.08843000 87904,6917.871,95.437,540.493,538.979,0.0
49749,STARLINK-3250,PAYLOAD,2023-06-29 10:43:42,15.08840762,9.73e-05,53.2153,247.5591,87.5442,272.5662,0.00010166,1.331e-05,0.0,0 STARLINK-3250,1 49749U 21115AB  23180.44702443  .00001331  00000-0  10166-3 0  9990,2 49749  53.2153 247.5591 0000973  87.5442 272.5662 15.08840762 88058,6917.878,95.438,540.416,539.07,0.0
